SL-16 R/B               
1 25400U 98043G   26035.82488287  .00000092  00000+0  57403-4 0  9991
2 25400  98.8200 348.9670 0010874 107.7974 252.4393 14.26041566434309
SL-16 R/B               
1 25407U 98045B   26035.72875990 -.00000215  00000+0 -84729-4 0  9990
2 25407  71.0089 250.8904 0005198  69.9060 290.2623 14.16185470422432
ISS (ZARYA)             
1 25544U 98067A   26035.53404010  .00009649  00000+0  18669-3 0  9993
2 25544  51.6314 236.2588 0011166  64.0196 296.1942 15.48388993551199
CZ-4B R/B               
1 25732U 99025C   26035.72901914  .00000072  00000+0  55584-4 0  9992
2 25732  98.6690  80.7815 0038182  80.1945  30.7403 14.18258616383493
OKEAN-O                 
1 25860U 99039A   26035.73337689  .00000842  00000+0  11740-3 0  9992
2 25860  97.9513  95.9480 0001934  89.5916 270.5518 14.80279159429512
SL-16 R/B               
1 25861U 99039B   26035.67687786  .00000768  00000+0  10429-3 0  9992
2 25861  98.0036  94.8104 0014960   9.9612 350.1894 14.81683479431978
DELTA 2 R/B             
1 25876U 99041E   26035.80586385  .00002504  00000+0  44019-3 0  9991
2 25876  51.7645  72.5954 0502451 251.2759 103.3023 14.11699996358382
HELIOS 1B               
1 25977U 99064A   26035.68815026  .00002341  00000+0  26429-3 0  9995
2 25977  98.1730 296.9571 0001868 120.5856 239.5543 14.87557857680359
TERRA                   
1 25994U 99068A   26035.78450248  .00000570  00000+0  12531-3 0  9991
2 25994  97.9662  90.4646 0000996 301.3869 181.1946 14.60977751390271
SL-16 R/B               
1 26070U 00006B   26035.80624593  .00000071  00000+0  60391-4 0  9994
2 26070  71.0027 166.9775 0018462 236.2246 123.7119 14.15820389343905
TITAN 4B R/B            
1 26474U 00047B   26035.76303875  .00004598  00000+0  29165-3 0  9990
2 26474  67.9897 133.0792 0036864  76.0986 284.4259 15.09283693387940
ENVISAT                 
1 27386U 02009A   26035.86212199  .00000178  00000+0  71432-4 0  9997
2 27386  98.3674 350.2529 0001290  91.3808 326.8672 14.39024175254452
