CCSDS_OMM_VERS = 2.0
CREATION_DATE  = 
ORIGINATOR     = 

OBJECT_NAME    = SL-16 R/B
OBJECT_ID      = 1998-043G
CENTER_NAME    = EARTH
REF_FRAME      = TEME
TIME_SYSTEM    = UTC
MEAN_ELEMENT_THEORY = SGP/SGP4

EPOCH          = 2026-02-04T19:47:49.879968
MEAN_MOTION    = 14.26041566
ECCENTRICITY   = .0010874
INCLINATION    = 98.8200
RA_OF_ASC_NODE = 348.9670
ARG_OF_PERICENTER = 107.7974
MEAN_ANOMALY   = 252.4393

EPHEMERIS_TYPE = 0
CLASSIFICATION_TYPE = U
NORAD_CAT_ID   = 25400
ELEMENT_SET_NO = 999
REV_AT_EPOCH   = 43430
BSTAR          = .57403E-4
MEAN_MOTION_DOT = .92E-6
MEAN_MOTION_DDOT = 0

CCSDS_OMM_VERS = 2.0
CREATION_DATE  = 
ORIGINATOR     = 

OBJECT_NAME    = SL-16 R/B
OBJECT_ID      = 1998-045B
CENTER_NAME    = EARTH
REF_FRAME      = TEME
TIME_SYSTEM    = UTC
MEAN_ELEMENT_THEORY = SGP/SGP4

EPOCH          = 2026-02-04T17:29:24.855360
MEAN_MOTION    = 14.16185470
ECCENTRICITY   = .0005198
INCLINATION    = 71.0089
RA_OF_ASC_NODE = 250.8904
ARG_OF_PERICENTER = 69.9060
MEAN_ANOMALY   = 290.2623

EPHEMERIS_TYPE = 0
CLASSIFICATION_TYPE = U
NORAD_CAT_ID   = 25407
ELEMENT_SET_NO = 999
REV_AT_EPOCH   = 42243
BSTAR          = -.84729E-4
MEAN_MOTION_DOT = -.215E-5
MEAN_MOTION_DDOT = 0

CCSDS_OMM_VERS = 2.0
CREATION_DATE  = 
ORIGINATOR     = 

OBJECT_NAME    = ISS (ZARYA)
OBJECT_ID      = 1998-067A
CENTER_NAME    = EARTH
REF_FRAME      = TEME
TIME_SYSTEM    = UTC
MEAN_ELEMENT_THEORY = SGP/SGP4

EPOCH          = 2026-02-04T12:49:01.064640
MEAN_MOTION    = 15.48388993
ECCENTRICITY   = .0011166
INCLINATION    = 51.6314
RA_OF_ASC_NODE = 236.2588
ARG_OF_PERICENTER = 64.0196
MEAN_ANOMALY   = 296.1942

EPHEMERIS_TYPE = 0
CLASSIFICATION_TYPE = U
NORAD_CAT_ID   = 25544
ELEMENT_SET_NO = 999
REV_AT_EPOCH   = 55119
BSTAR          = .18669E-3
MEAN_MOTION_DOT = .9649E-4
MEAN_MOTION_DDOT = 0

CCSDS_OMM_VERS = 2.0
CREATION_DATE  = 
ORIGINATOR     = 

OBJECT_NAME    = CZ-4B R/B
OBJECT_ID      = 1999-025C
CENTER_NAME    = EARTH
REF_FRAME      = TEME
TIME_SYSTEM    = UTC
MEAN_ELEMENT_THEORY = SGP/SGP4

EPOCH          = 2026-02-04T17:29:47.253696
MEAN_MOTION    = 14.18258616
ECCENTRICITY   = .0038182
INCLINATION    = 98.6690
RA_OF_ASC_NODE = 80.7815
ARG_OF_PERICENTER = 80.1945
MEAN_ANOMALY   = 30.7403

EPHEMERIS_TYPE = 0
CLASSIFICATION_TYPE = U
NORAD_CAT_ID   = 25732
ELEMENT_SET_NO = 999
REV_AT_EPOCH   = 38349
BSTAR          = .55584E-4
MEAN_MOTION_DOT = .72E-6
MEAN_MOTION_DDOT = 0

CCSDS_OMM_VERS = 2.0
CREATION_DATE  = 
ORIGINATOR     = 

OBJECT_NAME    = OKEAN-O
OBJECT_ID      = 1999-039A
CENTER_NAME    = EARTH
REF_FRAME      = TEME
TIME_SYSTEM    = UTC
MEAN_ELEMENT_THEORY = SGP/SGP4

EPOCH          = 2026-02-04T17:36:03.763296
MEAN_MOTION    = 14.80279159
ECCENTRICITY   = .0001934
INCLINATION    = 97.9513
RA_OF_ASC_NODE = 95.9480
ARG_OF_PERICENTER = 89.5916
MEAN_ANOMALY   = 270.5518

EPHEMERIS_TYPE = 0
CLASSIFICATION_TYPE = U
NORAD_CAT_ID   = 25860
ELEMENT_SET_NO = 999
REV_AT_EPOCH   = 42951
BSTAR          = .1174E-3
MEAN_MOTION_DOT = .842E-5
MEAN_MOTION_DDOT = 0

CCSDS_OMM_VERS = 2.0
CREATION_DATE  = 
ORIGINATOR     = 

OBJECT_NAME    = SL-16 R/B
OBJECT_ID      = 1999-039B
CENTER_NAME    = EARTH
REF_FRAME      = TEME
TIME_SYSTEM    = UTC
MEAN_ELEMENT_THEORY = SGP/SGP4

EPOCH          = 2026-02-04T16:14:42.247104
MEAN_MOTION    = 14.81683479
ECCENTRICITY   = .001496
INCLINATION    = 98.0036
RA_OF_ASC_NODE = 94.8104
ARG_OF_PERICENTER = 9.9612
MEAN_ANOMALY   = 350.1894

EPHEMERIS_TYPE = 0
CLASSIFICATION_TYPE = U
NORAD_CAT_ID   = 25861
ELEMENT_SET_NO = 999
REV_AT_EPOCH   = 43197
BSTAR          = .10429E-3
MEAN_MOTION_DOT = .768E-5
MEAN_MOTION_DDOT = 0

CCSDS_OMM_VERS = 2.0
CREATION_DATE  = 
ORIGINATOR     = 

OBJECT_NAME    = DELTA 2 R/B
OBJECT_ID      = 1999-041E
CENTER_NAME    = EARTH
REF_FRAME      = TEME
TIME_SYSTEM    = UTC
MEAN_ELEMENT_THEORY = SGP/SGP4

EPOCH          = 2026-02-04T19:20:26.636640
MEAN_MOTION    = 14.11699996
ECCENTRICITY   = .0502451
INCLINATION    = 51.7645
RA_OF_ASC_NODE = 72.5954
ARG_OF_PERICENTER = 251.2759
MEAN_ANOMALY   = 103.3023

EPHEMERIS_TYPE = 0
CLASSIFICATION_TYPE = U
NORAD_CAT_ID   = 25876
ELEMENT_SET_NO = 999
REV_AT_EPOCH   = 35838
BSTAR          = .44019E-3
MEAN_MOTION_DOT = .2504E-4
MEAN_MOTION_DDOT = 0

CCSDS_OMM_VERS = 2.0
CREATION_DATE  = 
ORIGINATOR     = 

OBJECT_NAME    = HELIOS 1B
OBJECT_ID      = 1999-064A
CENTER_NAME    = EARTH
REF_FRAME      = TEME
TIME_SYSTEM    = UTC
MEAN_ELEMENT_THEORY = SGP/SGP4

EPOCH          = 2026-02-04T16:30:56.182464
MEAN_MOTION    = 14.87557857
ECCENTRICITY   = .0001868
INCLINATION    = 98.1730
RA_OF_ASC_NODE = 296.9571
ARG_OF_PERICENTER = 120.5856
MEAN_ANOMALY   = 239.5543

EPHEMERIS_TYPE = 0
CLASSIFICATION_TYPE = U
NORAD_CAT_ID   = 25977
ELEMENT_SET_NO = 999
REV_AT_EPOCH   = 68035
BSTAR          = .26429E-3
MEAN_MOTION_DOT = .2341E-4
MEAN_MOTION_DDOT = 0

CCSDS_OMM_VERS = 2.0
CREATION_DATE  = 
ORIGINATOR     = 

OBJECT_NAME    = TERRA
OBJECT_ID      = 1999-068A
CENTER_NAME    = EARTH
REF_FRAME      = TEME
TIME_SYSTEM    = UTC
MEAN_ELEMENT_THEORY = SGP/SGP4

EPOCH          = 2026-02-04T18:49:41.014272
MEAN_MOTION    = 14.60977751
ECCENTRICITY   = .0000996
INCLINATION    = 97.9662
RA_OF_ASC_NODE = 90.4646
ARG_OF_PERICENTER = 301.3869
MEAN_ANOMALY   = 181.1946

EPHEMERIS_TYPE = 0
CLASSIFICATION_TYPE = U
NORAD_CAT_ID   = 25994
ELEMENT_SET_NO = 999
REV_AT_EPOCH   = 39027
BSTAR          = .12531E-3
MEAN_MOTION_DOT = .57E-5
MEAN_MOTION_DDOT = 0

CCSDS_OMM_VERS = 2.0
CREATION_DATE  = 
ORIGINATOR     = 

OBJECT_NAME    = SL-16 R/B
OBJECT_ID      = 2000-006B
CENTER_NAME    = EARTH
REF_FRAME      = TEME
TIME_SYSTEM    = UTC
MEAN_ELEMENT_THEORY = SGP/SGP4

EPOCH          = 2026-02-04T19:20:59.648352
MEAN_MOTION    = 14.15820389
ECCENTRICITY   = .0018462
INCLINATION    = 71.0027
RA_OF_ASC_NODE = 166.9775
ARG_OF_PERICENTER = 236.2246
MEAN_ANOMALY   = 123.7119

EPHEMERIS_TYPE = 0
CLASSIFICATION_TYPE = U
NORAD_CAT_ID   = 26070
ELEMENT_SET_NO = 999
REV_AT_EPOCH   = 34390
BSTAR          = .60391E-4
MEAN_MOTION_DOT = .71E-6
MEAN_MOTION_DDOT = 0

CCSDS_OMM_VERS = 2.0
CREATION_DATE  = 
ORIGINATOR     = 

OBJECT_NAME    = TITAN 4B R/B
OBJECT_ID      = 2000-047B
CENTER_NAME    = EARTH
REF_FRAME      = TEME
TIME_SYSTEM    = UTC
MEAN_ELEMENT_THEORY = SGP/SGP4

EPOCH          = 2026-02-04T18:18:46.548000
MEAN_MOTION    = 15.09283693
ECCENTRICITY   = .0036864
INCLINATION    = 67.9897
RA_OF_ASC_NODE = 133.0792
ARG_OF_PERICENTER = 76.0986
MEAN_ANOMALY   = 284.4259

EPHEMERIS_TYPE = 0
CLASSIFICATION_TYPE = U
NORAD_CAT_ID   = 26474
ELEMENT_SET_NO = 999
REV_AT_EPOCH   = 38794
BSTAR          = .29165E-3
MEAN_MOTION_DOT = .4598E-4
MEAN_MOTION_DDOT = 0

CCSDS_OMM_VERS = 2.0
CREATION_DATE  = 
ORIGINATOR     = 

OBJECT_NAME    = ENVISAT
OBJECT_ID      = 2002-009A
CENTER_NAME    = EARTH
REF_FRAME      = TEME
TIME_SYSTEM    = UTC
MEAN_ELEMENT_THEORY = SGP/SGP4

EPOCH          = 2026-02-04T20:41:27.339936
MEAN_MOTION    = 14.39024175
ECCENTRICITY   = .000129
INCLINATION    = 98.3674
RA_OF_ASC_NODE = 350.2529
ARG_OF_PERICENTER = 91.3808
MEAN_ANOMALY   = 326.8672

EPHEMERIS_TYPE = 0
CLASSIFICATION_TYPE = U
NORAD_CAT_ID   = 27386
ELEMENT_SET_NO = 999
REV_AT_EPOCH   = 25445
BSTAR          = .71432E-4
MEAN_MOTION_DOT = .178E-5
MEAN_MOTION_DDOT = 0

